STARLINK-34168          
1 64079U 25107R   26068.42669957  .00039647  00000+0  14423-2 0  9995
2 64079  43.0020 202.7402 0001303 242.1444 117.9276 15.27585044 46084
KUIPER-00226            
1 67785U 26030X   26068.62629313  .00046834  00000+0  15530-2 0  9998
2 67785  51.8814 220.1252 0017713  64.2781 296.0030 15.30655594  5078
